<?xml version="1.0" encoding="UTF-8"?>
<kml xmlns="http://www.opengis.net/kml/2.2"><Document><name>Portugal · Oct 2026 · POI</name>
<Style id="Airports"><IconStyle><color>ffd6782a</color><scale>1.2</scale><Icon><href>https://maps.google.com/mapfiles/kml/paddle/wht-blank.png</href></Icon></IconStyle></Style>
<Style id="Boat"><IconStyle><color>ff7aaf1b</color><scale>1.2</scale><Icon><href>https://maps.google.com/mapfiles/kml/paddle/wht-blank.png</href></Icon></IconStyle></Style>
<Style id="Nature"><IconStyle><color>ff008300</color><scale>1.2</scale><Icon><href>https://maps.google.com/mapfiles/kml/paddle/wht-blank.png</href></Icon></IconStyle></Style>
<Style id="Fooddrink"><IconStyle><color>ffa47be8</color><scale>1.2</scale><Icon><href>https://maps.google.com/mapfiles/kml/paddle/wht-blank.png</href></Icon></IconStyle></Style>
<Style id="Beachescoves"><IconStyle><color>ff7aaf1b</color><scale>1.2</scale><Icon><href>https://maps.google.com/mapfiles/kml/paddle/wht-blank.png</href></Icon></IconStyle></Style>
<Style id="Viewpoints"><IconStyle><color>ff00a1ed</color><scale>1.2</scale><Icon><href>https://maps.google.com/mapfiles/kml/paddle/wht-blank.png</href></Icon></IconStyle></Style>
<Style id="Stays"><IconStyle><color>ff3468eb</color><scale>1.2</scale><Icon><href>https://maps.google.com/mapfiles/kml/paddle/wht-blank.png</href></Icon></IconStyle></Style>
<Style id="Villagesculture"><IconStyle><color>ff00a1ed</color><scale>1.2</scale><Icon><href>https://maps.google.com/mapfiles/kml/paddle/wht-blank.png</href></Icon></IconStyle></Style>
<Folder><name>Airports</name>
<Placemark><name>✈️ Faro Airport</name><description><![CDATA[Mon 12 · 08:20 · car pick-up<br><a href="https://www.google.com/maps/search/?api=1&query=37.0144,-7.9659">Navigate</a>]]></description><styleUrl>#Airports</styleUrl><Point><coordinates>-7.9659,37.0144,0</coordinates></Point></Placemark>
<Placemark><name>✈️ Lisbon Airport</name><description><![CDATA[Thu 15 · car drop 08:10 · TAP 10:20<br><a href="https://www.google.com/maps/search/?api=1&query=38.7756,-9.1354">Navigate</a>]]></description><styleUrl>#Airports</styleUrl><Point><coordinates>-9.1354,38.7756,0</coordinates></Point></Placemark>
</Folder>
<Folder><name>Boat</name>
<Placemark><name>⛵ Praia da Marinha clifftop</name><description><![CDATA[Postcard from above · no boats<br><a href="https://www.google.com/maps/search/?api=1&query=37.0895,-8.4125">Navigate</a>]]></description><styleUrl>#Boat</styleUrl><Point><coordinates>-8.4125,37.0895,0</coordinates></Point></Placemark>
</Folder>
<Folder><name>Nature</name>
<Placemark><name>🌿 Cabo São Vicente</name><description><![CDATA[End of Europe · 15 min<br><a href="https://www.google.com/maps/search/?api=1&query=37.0233,-8.9960">Navigate</a>]]></description><styleUrl>#Nature</styleUrl><Point><coordinates>-8.9960,37.0233,0</coordinates></Point></Placemark>
<Placemark><name>🌿 Carrasqueira stilt pier</name><description><![CDATA[5-min photo stop<br><a href="https://www.google.com/maps/search/?api=1&query=38.4080,-8.7550">Navigate</a>]]></description><styleUrl>#Nature</styleUrl><Point><coordinates>-8.7550,38.4080,0</coordinates></Point></Placemark>
</Folder>
<Folder><name>Food &amp; drink</name>
<Placemark><name>🍽️ A Eira do Mel · Vila do Bispo</name><description><![CDATA[Lunch · Bib Gourmand · book<br><a href="https://www.google.com/maps/search/?api=1&query=37.0830,-8.9120">Navigate</a>]]></description><styleUrl>#Fooddrink</styleUrl><Point><coordinates>-8.9120,37.0830,0</coordinates></Point></Placemark>
<Placemark><name>🍽️ Lagos · Coffee Studio</name><description><![CDATA[Specialty roastery · Ponta da Piedade boardwalk 10 min<br><a href="https://www.google.com/maps/search/?api=1&query=37.1029,-8.6753">Navigate</a>]]></description><styleUrl>#Fooddrink</styleUrl><Point><coordinates>-8.6753,37.1029,0</coordinates></Point></Placemark>
<Placemark><name>🍽️ Zambujeira · Cabo Sardão</name><description><![CDATA[Tue · storks · O Sacas<br><a href="https://www.google.com/maps/search/?api=1&query=37.52,-8.78">Navigate</a>]]></description><styleUrl>#Fooddrink</styleUrl><Point><coordinates>-8.78,37.52,0</coordinates></Point></Placemark>
<Placemark><name>🍽️ Porto Covo</name><description><![CDATA[Wed coffee<br><a href="https://www.google.com/maps/search/?api=1&query=37.85,-8.79">Navigate</a>]]></description><styleUrl>#Fooddrink</styleUrl><Point><coordinates>-8.79,37.85,0</coordinates></Point></Placemark>
</Folder>
<Folder><name>Beaches &amp; coves</name>
<Placemark><name>🏖️ Praia da Amália</name><description><![CDATA[Waterfall cove · carrier<br><a href="https://www.google.com/maps/search/?api=1&query=37.5480,-8.7830">Navigate</a>]]></description><styleUrl>#Beachescoves</styleUrl><Point><coordinates>-8.7830,37.5480,0</coordinates></Point></Placemark>
<Placemark><name>🏖️ Aljezur / Odeceixe</name><description><![CDATA[N120 · river beach<br><a href="https://www.google.com/maps/search/?api=1&query=37.33,-8.83">Navigate</a>]]></description><styleUrl>#Beachescoves</styleUrl><Point><coordinates>-8.83,37.33,0</coordinates></Point></Placemark>
<Placemark><name>🏖️ Vila Nova de Milfontes</name><description><![CDATA[Wed · Mira estuary fort<br><a href="https://www.google.com/maps/search/?api=1&query=37.725,-8.783">Navigate</a>]]></description><styleUrl>#Beachescoves</styleUrl><Point><coordinates>-8.783,37.725,0</coordinates></Point></Placemark>
<Placemark><name>🏖️ Comporta · Cavalariça</name><description><![CDATA[Wed lunch · Praia do Pego<br><a href="https://www.google.com/maps/search/?api=1&query=38.38,-8.79">Navigate</a>]]></description><styleUrl>#Beachescoves</styleUrl><Point><coordinates>-8.79,38.38,0</coordinates></Point></Placemark>
</Folder>
<Folder><name>Viewpoints</name>
<Placemark><name>🌄 Praia da Bordeira</name><description><![CDATA[Optional viewpoint detour<br><a href="https://www.google.com/maps/search/?api=1&query=37.20,-8.90">Navigate</a>]]></description><styleUrl>#Viewpoints</styleUrl><Point><coordinates>-8.90,37.20,0</coordinates></Point></Placemark>
<Placemark><name>🌄 Senhora do Monte</name><description><![CDATA[Skyline viewpoint<br><a href="https://www.google.com/maps/search/?api=1&query=38.7189,-9.1325">Navigate</a>]]></description><styleUrl>#Viewpoints</styleUrl><Point><coordinates>-9.1325,38.7189,0</coordinates></Point></Placemark>
</Folder>
<Folder><name>Stays</name>
<Placemark><name>🏠 Craveiral Farmhouse</name><description><![CDATA[Nights 1–2<br><a href="https://www.google.com/maps/search/?api=1&query=37.51,-8.71">Navigate</a>]]></description><styleUrl>#Stays</styleUrl><Point><coordinates>-8.71,37.51,0</coordinates></Point></Placemark>
<Placemark><name>🏠 Hygge House Downtown</name><description><![CDATA[Night 3 · Baixa<br><a href="https://www.google.com/maps/search/?api=1&query=38.7125,-9.1380">Navigate</a>]]></description><styleUrl>#Stays</styleUrl><Point><coordinates>-9.1380,38.7125,0</coordinates></Point></Placemark>
</Folder>
<Folder><name>Villages &amp; culture</name>
<Placemark><name>🏘️ Belém · Comoba · MAAT</name><description><![CDATA[Tram 15E<br><a href="https://www.google.com/maps/search/?api=1&query=38.6968,-9.2058">Navigate</a>]]></description><styleUrl>#Villagesculture</styleUrl><Point><coordinates>-9.2058,38.6968,0</coordinates></Point></Placemark>
</Folder>
</Document></kml>